BEIDOU-2 G8             
1 44231U 19027A   26166.92930748 -.00000247  00000+0  00000+0 0  9998
2 44231   1.6541  74.4926 0010223 281.7402  27.0687  1.00271124 26069
COSMOS 2534 [GLONASS-M] 
1 44299U 19030A   26166.66957637  .00000084  00000+0  00000+0 0  9991
2 44299  64.3684 192.6677 0013373 275.1269 139.7267  2.13102153 54897
BEIDOU-3 IGSO-2         
1 44337U 19035A   26165.62361995 -.00000071  00000+0  00000+0 0  9997
2 44337  55.2456 158.8849 0039904 216.4592 231.8306  1.00267330 25649
NAVSTAR 78 (USA 293)    
1 44506U 19056A   26166.65458477 -.00000082  00000+0  00000+0 0  9996
2 44506  55.6378 331.2033 0062051 197.6084 163.1664  2.00569414 50046
BEIDOU-3 M24            
1 44542U 19061A   26166.09464848  .00000088  00000+0  00000+0 0  9994
2 44542  54.3961 182.7987 0008258 358.6686   1.3778  1.86229179 45758
BEIDOU-3 M23            
1 44543U 19061B   26166.22778992  .00000086  00000+0  00000+0 0  9996
2 44543  54.3948 182.7623 0005651 338.0000  22.9166  1.86227199 45768
EUTELSAT 5 WEST B       
1 44624U 19067A   26166.68578492 -.00000040  00000+0  00000+0 0  9996
2 44624   0.0632   3.7418 0002873  78.7733  63.3583  1.00272136 24423
BEIDOU-3 M22            
1 44793U 19078A   26166.47137576 -.00000068  00000+0  00000+0 0  9996
2 44793  53.9375 299.8886 0006426  50.5646 309.4786  1.86227251 44611
BEIDOU-3 M21            
1 44794U 19078B   26164.46345251 -.00000068  00000+0  00000+0 0  9995
2 44794  53.9128 299.9208 0004278  48.5109 311.5090  1.86227756 44589
COSMOS 2544 [GLONASS-M] 
1 44850U 19088A   26165.68306459 -.00000026  00000+0  00000+0 0  9995
2 44850  65.5641  73.8147 0013199 258.7449 101.1313  2.13102561 50660
BEIDOU-3 M19            
1 44864U 19090A   26165.52330763 -.00000053  00000+0  00000+0 0  9991
2 44864  56.5562  62.8792 0017922 297.9457 249.9520  1.86231333 44183
BEIDOU-3 M20            
1 44865U 19090B   26166.44845134 -.00000051  00000+0  00000+0 0  9995
2 44865  56.5591  62.8831 0015700 311.8905 225.8558  1.86231059 44185
BEIDOU-3 G2             
1 45344U 20017A   26166.70268205 -.00000141  00000+0  00000+0 0  9996
2 45344   2.8605  47.3098 0002044  32.0684 157.6480  1.00272096 23246
COSMOS 2545 [GLONASS-M] 
1 45358U 20018A   26165.40880204 -.00000054  00000+0  00000+0 0  9990
2 45358  64.3567 312.5170 0008337 230.3035 129.6070  2.13102514 48606
BEIDOU-3 G3             
1 45807U 20040A   26166.92246078 -.00000354  00000+0  00000+0 0  9990
2 45807   2.4433  67.4355 0002399 334.9904 304.3798  1.00267140 22051
NAVSTAR 79 (USA 304)    
1 45854U 20041A   26162.56161249 -.00000063  00000+0  00000+0 0  9992
2 45854  56.6657  29.1622 0063604 204.6361  19.3768  2.00558626 43922
GALAXY 30 (G-30)        
1 46114U 20056C   26166.66203815  .00000039  00000+0  00000+0 0  9991
2 46114   0.0172  10.6110 0002072  74.4375 292.2233  1.00270817 21279
COSMOS 2547 [GLONASS-K] 
1 46805U 20075A   26163.72129992  .00000119  00000+0  00000+0 0  9995
2 46805  64.5993 192.6246 0009245 239.6069 120.3788  2.13100258 43813
NAVSTAR 80 (USA 309)    
1 46826U 20078A   26166.28723537  .00000071  00000+0  00000+0 0  9997
2 46826  53.9800 210.8558 0073451 207.1439 163.1442  2.00564761 41476
NAVSTAR 81 (USA 319)    
1 48859U 21054A   26165.49119520 -.00000079  00000+0  00000+0 0  9992
2 48859  55.1759 332.5679 0025337 228.5758 113.1489  2.00568903 36694
QZS-1R (MICHIBIKI-1R)   
1 49336U 21096A   26166.63725311 -.00000280  00000+0  00000+0 0  9991
2 49336  37.4590  79.6067 0754763 271.7705 276.0514  1.00255740 16995
GSAT0223 (GALILEO 27)   
1 49809U 21116A   26162.13215269 -.00000065  00000+0  00000+0 0  9997
2 49809  57.1623 341.8389 0001404 187.4451 176.2704  1.70475860 28084
GSAT0224 (GALILEO 28)   
1 49810U 21116B   26166.62800549 -.00000083  00000+0  00000+0 0  9998
2 49810  57.1620 341.7155 0001119 160.0278 195.5159  1.70475771 28179
COSMOS 2557 [GLONASS-K] 
1 52984U 22075A   26163.88559135 -.00000051  00000+0  00000+0 0  9991
2 52984  64.3011 314.6375 0010222 275.3123  84.5589  2.13102288 30621
COSMOS 2559 [GLONASS-K] 
1 54031U 22130A   26166.52077722 -.00000056  00000+0  00000+0 0  9994
2 54031  64.2722 314.6272 0012574 178.0209 181.9686  2.13101538 28653
COSMOS 2564 [GLONASS-M] 
1 54377U 22161A   26165.42556716  .00000103  00000+0  00000+0 0  9996
2 54377  64.7414 192.8035 0012164 224.6167 135.3579  2.13101987 27570
NAVSTAR 82 (USA 343)    
1 55268U 23009A   26163.12704838  .00000093  00000+0  00000+0 0  9991
2 55268  55.1221 148.7180 0006256 318.1997 154.6775  2.00571745 25148
BEIDOU-3 G4             
1 56564U 23066A   26166.92835413 -.00000280  00000+0  00000+0 0  9998
2 56564   0.4881 331.1818 0004299 181.7389 225.5103  1.00274047 11381
NVS-01 (IRNSS-1J)       
1 56759U 23076A   26166.85500497 -.00000334  00000+0  00000+0 0  9998
2 56759   2.1690 244.4115 0003200  36.3668  60.6354  1.00265265 11104
COSMOS 2569 [GLONASS-K2]
1 57517U 23114A   26166.37639921 -.00000024  00000+0  00000+0 0  9992
2 57517  65.3011  72.6815 0010734 296.8932  63.0268  2.13103652 22222
BEIDOU-3 M28            
1 58654U 23207A   26164.00359830 -.00000057  00000+0  00000+0 0  9990
2 58654  55.7492  62.4443 0003374 346.0621  13.9544  1.86229633 16760
